{
  "norad_id": 65285,
  "name": "STARLINK-34995",
  "history": [
    {
      "epoch": "2026-03-28T20:38:31.922016Z",
      "apogee_km": 550.2047593967873,
      "perigee_km": 548.8049600826089,
      "latitude_deg": 2.0156359233931008e-05,
      "longitude_deg": 5.622907960088394,
      "height_km": 552.7193859043523,
      "semi_major_axis_km": 6927.641859739698,
      "eccentricity": 0.00010103,
      "inclination_deg": 97.6024,
      "raan_deg": 141.5304,
      "arg_perigee_deg": 102.447,
      "mean_anomaly_deg": 257.687,
      "mean_motion_rev_day": 15.05652052
    },
    {
      "epoch": "2026-03-29T03:01:19.745472Z",
      "apogee_km": 550.1584630530197,
      "perigee_km": 548.8158894876597,
      "latitude_deg": -6.795436079732476e-05,
      "longitude_deg": -90.07636001083857,
      "height_km": 552.6809975010168,
      "semi_major_axis_km": 6927.624176270339,
      "eccentricity": 9.69e-05,
      "inclination_deg": 97.6019,
      "raan_deg": 141.7924,
      "arg_perigee_deg": 101.1716,
      "mean_anomaly_deg": 258.9619,
      "mean_motion_rev_day": 15.05657817
    },
    {
      "epoch": "2026-03-30T01:21:08.227008Z",
      "apogee_km": 550.2170907282034,
      "perigee_km": 548.8875285958939,
      "latitude_deg": 4.1024578072419535e-05,
      "longitude_deg": -65.02844637336545,
      "height_km": 552.8951181837083,
      "semi_major_axis_km": 6927.689309662049,
      "eccentricity": 9.596e-05,
      "inclination_deg": 97.6017,
      "raan_deg": 142.7094,
      "arg_perigee_deg": 114.8078,
      "mean_anomaly_deg": 245.3249,
      "mean_motion_rev_day": 15.05636583
    },
    {
      "epoch": "2026-03-30T14:06:44.847648Z",
      "apogee_km": 550.2114779291414,
      "perigee_km": 548.9132270704831,
      "latitude_deg": -1.623320923432318e-05,
      "longitude_deg": 103.56883418122315,
      "height_km": 552.9862177802721,
      "semi_major_axis_km": 6927.6993524998115,
      "eccentricity": 9.37e-05,
      "inclination_deg": 97.6013,
      "raan_deg": 143.2333,
      "arg_perigee_deg": 123.6619,
      "mean_anomaly_deg": 236.4697,
      "mean_motion_rev_day": 15.05633309
    },
    {
      "epoch": "2026-03-30T18:53:51.066240Z",
      "apogee_km": 550.1979908996009,
      "perigee_km": 548.9138737376661,
      "latitude_deg": -3.296242190392999e-05,
      "longitude_deg": 31.792910371184735,
      "height_km": 552.9835988326871,
      "semi_major_axis_km": 6927.692932318633,
      "eccentricity": 9.268e-05,
      "inclination_deg": 97.6015,
      "raan_deg": 143.4298,
      "arg_perigee_deg": 124.4907,
      "mean_anomaly_deg": 235.6407,
      "mean_motion_rev_day": 15.05635402
    },
    {
      "epoch": "2026-03-31T14:02:15.880992Z",
      "apogee_km": 550.1891689957129,
      "perigee_km": 548.8978493488021,
      "latitude_deg": 1.78752168723864e-05,
      "longitude_deg": 104.68934872727532,
      "height_km": 553.0063002411933,
      "semi_major_axis_km": 6927.680509172257,
      "eccentricity": 9.32e-05,
      "inclination_deg": 97.6011,
      "raan_deg": 144.2157,
      "arg_perigee_deg": 128.1274,
      "mean_anomaly_deg": 232.0037,
      "mean_motion_rev_day": 15.05639452
    },
    {
      "epoch": "2026-03-31T14:02:15.881856Z",
      "apogee_km": 550.1890304421013,
      "perigee_km": 548.8979879024128,
      "latitude_deg": 1.9675784449791075e-05,
      "longitude_deg": 104.68934487845179,
      "height_km": 553.006214677404,
      "semi_major_axis_km": 6927.680509172257,
      "eccentricity": 9.318e-05,
      "inclination_deg": 97.6011,
      "raan_deg": 144.2157,
      "arg_perigee_deg": 128.1274,
      "mean_anomaly_deg": 232.0037,
      "mean_motion_rev_day": 15.05639452
    },
    {
      "epoch": "2026-04-01T02:47:52.050624Z",
      "apogee_km": 550.1440696259951,
      "perigee_km": 548.8977839649642,
      "latitude_deg": 3.625376153919608e-05,
      "longitude_deg": -86.71149629978368,
      "height_km": 553.0138517643024,
      "semi_major_axis_km": 6927.657926795479,
      "eccentricity": 8.995e-05,
      "inclination_deg": 97.6011,
      "raan_deg": 144.7396,
      "arg_perigee_deg": 133.4605,
      "mean_anomaly_deg": 226.6697,
      "mean_motion_rev_day": 15.05646814
    },
    {
      "epoch": "2026-04-02T09:06:09.327168Z",
      "apogee_km": 550.2356225805443,
      "perigee_km": 548.651562002311,
      "latitude_deg": 1.9567669569775564e-05,
      "longitude_deg": 178.71564779651172,
      "height_km": 553.1355276132721,
      "semi_major_axis_km": 6927.580592291428,
      "eccentricity": 0.00011433,
      "inclination_deg": 97.6004,
      "raan_deg": 145.9833,
      "arg_perigee_deg": 142.4112,
      "mean_anomaly_deg": 217.7195,
      "mean_motion_rev_day": 15.05672026
    },
    {
      "epoch": "2026-04-03T17:00:08.150688Z",
      "apogee_km": 550.2637871244206,
      "perigee_km": 548.717540629842,
      "latitude_deg": 1.1297356409106144e-05,
      "longitude_deg": 60.223578247201125,
      "height_km": 552.8787221935418,
      "semi_major_axis_km": 6927.6276638771305,
      "eccentricity": 0.0001116,
      "inclination_deg": 97.6008,
      "raan_deg": 147.2964,
      "arg_perigee_deg": 114.804,
      "mean_anomaly_deg": 245.3303,
      "mean_motion_rev_day": 15.0565668
    },
    {
      "epoch": "2026-04-04T16:55:37.991712Z",
      "apogee_km": 550.0510107910977,
      "perigee_km": 548.9301206509635,
      "latitude_deg": -2.924278954990373e-05,
      "longitude_deg": 61.34828231327515,
      "height_km": 553.0213390360381,
      "semi_major_axis_km": 6927.627565721031,
      "eccentricity": 8.09e-05,
      "inclination_deg": 97.6021,
      "raan_deg": 148.278,
      "arg_perigee_deg": 146.2809,
      "mean_anomaly_deg": 213.8469,
      "mean_motion_rev_day": 15.05656712
    },
    {
      "epoch": "2026-04-05T02:29:49.662528Z",
      "apogee_km": 549.9475412289603,
      "perigee_km": 548.9846044018404,
      "latitude_deg": 2.151709496154168e-06,
      "longitude_deg": -82.20117289946401,
      "height_km": 552.9686884737714,
      "semi_major_axis_km": 6927.6030728154,
      "eccentricity": 6.95e-05,
      "inclination_deg": 97.6025,
      "raan_deg": 148.6702,
      "arg_perigee_deg": 155.4003,
      "mean_anomaly_deg": 204.7257,
      "mean_motion_rev_day": 15.05664697
    },
    {
      "epoch": "2026-04-05T16:51:07.703136Z",
      "apogee_km": 550.0624785795808,
      "perigee_km": 548.9360449234209,
      "latitude_deg": -2.4132661139487106e-05,
      "longitude_deg": 62.47332095338377,
      "height_km": 553.1077995442251,
      "semi_major_axis_km": 6927.636261751501,
      "eccentricity": 8.13e-05,
      "inclination_deg": 97.6025,
      "raan_deg": 149.2594,
      "arg_perigee_deg": 164.8196,
      "mean_anomaly_deg": 195.3055,
      "mean_motion_rev_day": 15.05653877
    },
    {
      "epoch": "2026-04-06T02:25:19.738560Z",
      "apogee_km": 550.320995228295,
      "perigee_km": 548.6587804328283,
      "latitude_deg": 7.196182179180873e-05,
      "longitude_deg": -81.07636652466718,
      "height_km": 553.2053601589627,
      "semi_major_axis_km": 6927.626887830561,
      "eccentricity": 0.00011997,
      "inclination_deg": 97.6024,
      "raan_deg": 149.6529,
      "arg_perigee_deg": 141.5969,
      "mean_anomaly_deg": 218.5344,
      "mean_motion_rev_day": 15.05656933
    },
    {
      "epoch": "2026-04-07T13:30:43.440192Z",
      "apogee_km": 550.0187973478887,
      "perigee_km": 548.9048394578895,
      "latitude_deg": -2.8584834742386933e-05,
      "longitude_deg": 112.57539445180153,
      "height_km": 553.0502147056189,
      "semi_major_axis_km": 6927.598818402888,
      "eccentricity": 8.04e-05,
      "inclination_deg": 97.6038,
      "raan_deg": 151.0945,
      "arg_perigee_deg": 160.0457,
      "mean_anomaly_deg": 200.0801,
      "mean_motion_rev_day": 15.05666084
    },
    {
      "epoch": "2026-04-07T13:30:43.441056Z",
      "apogee_km": 550.0186587959115,
      "perigee_km": 548.9049780098658,
      "latitude_deg": -2.7766390967854094e-05,
      "longitude_deg": 112.57549073329011,
      "height_km": 553.0500844380962,
      "semi_major_axis_km": 6927.598818402888,
      "eccentricity": 8.038e-05,
      "inclination_deg": 97.6038,
      "raan_deg": 151.0946,
      "arg_perigee_deg": 160.0457,
      "mean_anomaly_deg": 200.0801,
      "mean_motion_rev_day": 15.05666084
    },
    {
      "epoch": "2026-04-08T13:26:12.335136Z",
      "apogee_km": 550.0459799687023,
      "perigee_km": 548.8483392191911,
      "latitude_deg": 6.823498175510062e-05,
      "longitude_deg": 113.70533075863823,
      "height_km": 552.9514881272409,
      "semi_major_axis_km": 6927.584159593946,
      "eccentricity": 8.644e-05,
      "inclination_deg": 97.603,
      "raan_deg": 152.0774,
      "arg_perigee_deg": 222.963,
      "mean_anomaly_deg": 137.153,
      "mean_motion_rev_day": 15.05670863
    },
    {
      "epoch": "2026-04-09T02:11:49.005024Z",
      "apogee_km": 549.8961803062821,
      "perigee_km": 549.1726543034583,
      "latitude_deg": 6.510007866397592e-05,
      "longitude_deg": -77.69570387645786,
      "height_km": 552.9574352542924,
      "semi_major_axis_km": 6927.67141730487,
      "eccentricity": 5.222e-05,
      "inclination_deg": 97.607,
      "raan_deg": 152.6032,
      "arg_perigee_deg": 171.768,
      "mean_anomaly_deg": 188.3556,
      "mean_motion_rev_day": 15.05642416
    },
    {
      "epoch": "2026-04-10T10:05:48.969888Z",
      "apogee_km": 549.9316715743917,
      "perigee_km": 549.0324666192237,
      "latitude_deg": 2.0126536959790322e-05,
      "longitude_deg": 163.80495880403726,
      "height_km": 552.9658373120542,
      "semi_major_axis_km": 6927.619069096808,
      "eccentricity": 6.49e-05,
      "inclination_deg": 97.6058,
      "raan_deg": 153.9138,
      "arg_perigee_deg": 158.7209,
      "mean_anomaly_deg": 201.4045,
      "mean_motion_rev_day": 15.05659482
    }
  ]
}